ONEWEB-0534             
1 55797U 23029B   26163.30546595  .00000020  00000+0  16854-4 0  9993
2 55797  87.9181 275.4427 0001850  99.8688 260.2655 13.20771716160505
ONEWEB-0556             
1 55798U 23029C   26163.31220455  .00000007  00000+0 -15678-4 0  9998
2 55798  87.9180 275.4410 0001768  74.2912 285.8416 13.20773490160501
ONEWEB-0562             
1 55799U 23029D   26163.29872766  .00000007  00000+0 -15066-4 0  9995
2 55799  87.9181 275.4246 0002436  81.4853 278.6557 13.20770718160503
ONEWEB-0563             
1 55800U 23029E   26163.29368837  .00000037  00000+0  59735-4 0  9990
2 55800  87.9181 275.4561 0001728 101.3373 258.7955 13.20772119160494
ONEWEB-0564             
1 55801U 23029F   26163.28695316  .00000051  00000+0  93418-4 0  9997
2 55801  87.9183 275.4307 0002215  91.7103 268.4284 13.20771112160507
ONEWEB-0638             
1 55802U 23029G   26163.29321116 -.00002377  00000+0 -64486-2 0  9999
2 55802  87.8952 290.7275 0001672  81.8179 278.3140 13.14481328158759
ONEWEB-0639             
1 55803U 23029H   26163.10382655 -.00000012  00000+0 -61597-4 0  9991
2 55803  87.9164 305.9888 0001059 122.1248 237.9987 13.19725280158236
ONEWEB-0640             
1 55804U 23029J   26163.30269113 -.00000165  00000+0 -47891-3 0  9996
2 55804  87.8951 290.7168 0001493  79.9829 280.1469 13.14502957158771
ONEWEB-0641             
1 55805U 23029K   26163.09907862  .00000001  00000+0 -30745-4 0  9992
2 55805  87.9172 305.9785 0001712 101.5648 258.5677 13.19724980158246
ONEWEB-0642             
1 55806U 23029L   26163.09434608  .00000034  00000+0  53667-4 0  9999
2 55806  87.9165 305.9917 0001354 123.5745 236.5517 13.19724600158237
ONEWEB-0643             
1 55807U 23029M   26163.27257144  .00000237  00000+0  60433-3 0  9991
2 55807  87.8951 290.7099 0001718 121.7209 238.4088 13.14503122158740
ONEWEB-0644             
1 55808U 23029N   26162.93796747 -.00000061  00000+0 -18425-3 0  9992
2 55808  87.9163 306.0243 0001619 107.6356 252.4953 13.19724024158215
ONEWEB-0645             
1 55809U 23029P   26163.11171303  .00000033  00000+0  49048-4 0  9992
2 55809  87.9162 305.9868 0001383  95.0565 265.0725 13.19724112158233
ONEWEB-0646             
1 55810U 23029Q   26162.90165097  .00000022  00000+0  22861-4 0  9995
2 55810  87.9164 306.0288 0001669 105.9463 254.1854 13.19724657158191
ONEWEB-0648             
1 55811U 23029R   26162.86024016 -.00000284  00000+0 -79994-3 0  9996
2 55811  87.8961 290.7652 0000983 109.7650 250.3586 13.14502939158695
ONEWEB-0649             
1 55812U 23029S   26163.15436291 -.00000093  00000+0 -26435-3 0  9992
2 55812  87.9161 305.9762 0001578  99.5237 260.6074 13.19724226158267
ONEWEB-0650             
1 55813U 23029T   26163.30124544  .00000065  00000+0  12985-3 0  9997
2 55813  87.9165 305.9494 0001415 112.6248 247.5035 13.19724953158250
ONEWEB-0652             
1 55814U 23029U   26163.29792137 -.00000126  00000+0 -37306-3 0  9999
2 55814  87.8957 290.6853 0002052  99.2868 260.8494 13.14504542158728
ONEWEB-0653             
1 55815U 23029V   26163.28207264  .00000097  00000+0  22640-3 0  9991
2 55815  87.8961 290.6864 0001883  97.1534 262.9810 13.14503154158750
ONEWEB-0654             
1 55816U 23029W   26162.82061180  .00000078  00000+0  17592-3 0  9995
2 55816  87.8959 290.7745 0002166  93.4457 266.6921 13.14503404158713
ONEWEB-0656             
1 55817U 23029X   26163.28022011  .00000061  00000+0  11833-3 0  9991
2 55817  87.9195 275.4075 0002334  94.1299 266.0102 13.20772877160506
ONEWEB-0657             
1 55818U 23029Y   26163.14489401 -.00000030  00000+0 -10653-3 0  9994
2 55818  87.9165 305.9793 0002468 105.6798 254.4607 13.19723967158243
ONEWEB-0658             
1 55819U 23029Z   26162.91270213 -.00000037  00000+0 -12535-3 0  9996
2 55819  87.9172 306.0006 0001572 109.1804 250.9500 13.19724445158226
ONEWEB-0660             
1 55820U 23029AA  26163.10288279  .00000156  00000+0  38671-3 0  9990
2 55820  87.8968 290.7111 0001596  95.5857 264.5454 13.14502887158732
ONEWEB-0661             
1 55821U 23029AB  26163.29001058 -.00000064  00000+0 -20783-3 0  9994
2 55821  87.8952 290.7192 0001669  91.9256 268.2064 13.14502340158742
ONEWEB-0662             
1 55822U 23029AC  26163.09654207  .00000011  00000+0 -58536-5 0  9993
2 55822  87.8945 290.7642 0001589  95.8801 264.2510 13.14502415158762
ONEWEB-0663             
1 55823U 23029AD  26163.31427593  .00000017  00000+0  97704-5 0  9990
2 55823  87.9194 275.4724 0001506 103.4519 256.6782 13.20868941160509
ONEWEB-0664             
1 55824U 23029AE  26163.26674497  .00000091  00000+0  19087-3 0  9990
2 55824  87.9179 275.4636 0001874  85.9392 274.1955 13.20770284160493
ONEWEB-0665             
1 55825U 23029AF  26163.28684001  .00000015  00000+0  65656-5 0  9996
2 55825  87.8953 290.7007 0001542  98.7379 261.3925 13.14502664158764
ONEWEB-0666             
1 55826U 23029AG  26163.03274413 -.00000016  00000+0 -72019-4 0  9995
2 55826  87.9180 275.5000 0002620 108.2781 251.8638 13.20770849160479
