OBJECT_NAME,OBJECT_ID,EPOCH,MEAN_MOTION,ECCENTRICITY,INCLINATION,RA_OF_ASC_NODE,ARG_OF_PERICENTER,MEAN_ANOMALY,EPHEMERIS_TYPE,CLASSIFICATION_TYPE,NORAD_CAT_ID,ELEMENT_SET_NO,REV_AT_EPOCH,BSTAR,MEAN_MOTION_DOT,MEAN_MOTION_DDOT
ONEWEB-0534,2023-029B,2026-06-12T07:19:52.258080,13.20771716,.00018509,87.9181,275.4427,99.8688,260.2655,0,U,55797,999,16050,.16853685E-4,.2E-6,0
ONEWEB-0556,2023-029C,2026-06-12T07:29:34.473120,13.20773490,.00017685,87.9180,275.4410,74.2912,285.8416,0,U,55798,999,16050,-.1567776E-4,.7E-7,0
ONEWEB-0562,2023-029D,2026-06-12T07:10:10.069824,13.20770718,.00024367,87.9181,275.4246,81.4853,278.6557,0,U,55799,999,16050,-.15065724E-4,.7E-7,0
ONEWEB-0563,2023-029E,2026-06-12T07:02:54.675168,13.20772119,.00017283,87.9181,275.4561,101.3373,258.7955,0,U,55800,999,16049,.59734654E-4,.37E-6,0
ONEWEB-0564,2023-029F,2026-06-12T06:53:12.753024,13.20771112,.00022157,87.9183,275.4307,91.7103,268.4284,0,U,55801,999,16050,.93418206E-4,.51E-6,0
ONEWEB-0638,2023-029G,2026-06-12T07:02:13.444224,13.14481328,.00016729,87.8952,290.7275,81.8179,278.3140,0,U,55802,999,15875,-.6448621E-2,-.2377E-4,0
ONEWEB-0639,2023-029H,2026-06-12T02:29:30.613920,13.19725280,.00010599,87.9164,305.9888,122.1248,237.9987,0,U,55803,999,15823,-.61597077E-4,-.12E-6,0
ONEWEB-0640,2023-029J,2026-06-12T07:15:52.513632,13.14502957,.00014934,87.8951,290.7168,79.9829,280.1469,0,U,55804,999,15877,-.4789063E-3,-.165E-5,0
ONEWEB-0641,2023-029K,2026-06-12T02:22:40.392768,13.19724980,.00017123,87.9172,305.9785,101.5648,258.5677,0,U,55805,999,15824,-.30744808E-4,.1E-7,0
ONEWEB-0642,2023-029L,2026-06-12T02:15:51.501312,13.19724600,.00013545,87.9165,305.9917,123.5745,236.5517,0,U,55806,999,15823,.53667146E-4,.34E-6,0
ONEWEB-0643,2023-029M,2026-06-12T06:32:30.172416,13.14503122,.0001718,87.8951,290.7099,121.7209,238.4088,0,U,55807,999,15874,.60432846E-3,.237E-5,0
ONEWEB-0644,2023-029N,2026-06-11T22:30:40.389408,13.19724024,.00016193,87.9163,306.0243,107.6356,252.4953,0,U,55808,999,15821,-.18425077E-3,-.61E-6,0
ONEWEB-0645,2023-029P,2026-06-12T02:40:52.005792,13.19724112,.00013835,87.9162,305.9868,95.0565,265.0725,0,U,55809,999,15823,.49048167E-4,.33E-6,0
ONEWEB-0646,2023-029Q,2026-06-11T21:38:22.643808,13.19724657,.00016698,87.9164,306.0288,105.9463,254.1854,0,U,55810,999,15819,.22861465E-4,.22E-6,0
ONEWEB-0648,2023-029R,2026-06-11T20:38:44.749824,13.14502939,.00009831,87.8961,290.7652,109.7650,250.3586,0,U,55811,999,15869,-.79994279E-3,-.284E-5,0
ONEWEB-0649,2023-029S,2026-06-12T03:42:16.955424,13.19724226,.00015787,87.9161,305.9762,99.5237,260.6074,0,U,55812,999,15826,-.26435101E-3,-.93E-6,0
ONEWEB-0650,2023-029T,2026-06-12T07:13:47.606016,13.19724953,.0001415,87.9165,305.9494,112.6248,247.5035,0,U,55813,999,15825,.12984665E-3,.65E-6,0
ONEWEB-0652,2023-029U,2026-06-12T07:09:00.406368,13.14504542,.00020523,87.8957,290.6853,99.2868,260.8494,0,U,55814,999,15872,-.37305595E-3,-.126E-5,0
ONEWEB-0653,2023-029V,2026-06-12T06:46:11.076096,13.14503154,.00018833,87.8961,290.6864,97.1534,262.9810,0,U,55815,999,15875,.22640475E-3,.97E-6,0
ONEWEB-0654,2023-029W,2026-06-11T19:41:40.859520,13.14503404,.00021668,87.8959,290.7745,93.4457,266.6921,0,U,55816,999,15871,.17591589E-3,.78E-6,0
ONEWEB-0656,2023-029X,2026-06-12T06:43:31.017504,13.20772877,.00023349,87.9195,275.4075,94.1299,266.0102,0,U,55817,999,16050,.11832581E-3,.61E-6,0
ONEWEB-0657,2023-029Y,2026-06-12T03:28:38.842464,13.19723967,.00024688,87.9165,305.9793,105.6798,254.4607,0,U,55818,999,15824,-.10652874E-3,-.3E-6,0
ONEWEB-0658,2023-029Z,2026-06-11T21:54:17.464032,13.19724445,.00015727,87.9172,306.0006,109.1804,250.9500,0,U,55819,999,15822,-.12534587E-3,-.37E-6,0
ONEWEB-0660,2023-029AA,2026-06-12T02:28:09.073056,13.14502887,.00015963,87.8968,290.7111,95.5857,264.5454,0,U,55820,999,15873,.38670783E-3,.156E-5,0
ONEWEB-0661,2023-029AB,2026-06-12T06:57:36.914112,13.14502340,.00016692,87.8952,290.7192,91.9256,268.2064,0,U,55821,999,15874,-.20783027E-3,-.64E-6,0
ONEWEB-0662,2023-029AC,2026-06-12T02:19:01.234848,13.14502415,.00015897,87.8945,290.7642,95.8801,264.2510,0,U,55822,999,15876,-.5853562E-5,.11E-6,0
ONEWEB-0663,2023-029AD,2026-06-12T07:32:33.440352,13.20868941,.00015062,87.9194,275.4724,103.4519,256.6782,0,U,55823,999,16050,.9770384E-5,.17E-6,0
ONEWEB-0664,2023-029AE,2026-06-12T06:24:06.765408,13.20770284,.00018748,87.9179,275.4636,85.9392,274.1955,0,U,55824,999,16049,.19087407E-3,.91E-6,0
ONEWEB-0665,2023-029AF,2026-06-12T06:53:02.976864,13.14502664,.00015427,87.8953,290.7007,98.7379,261.3925,0,U,55825,999,15876,.6565596E-5,.15E-6,0
ONEWEB-0666,2023-029AG,2026-06-12T00:47:09.092832,13.20770849,.00026202,87.9180,275.5000,108.2781,251.8638,0,U,55826,999,16047,-.72018612E-4,-.16E-6,0
